[
    {
        "Altitude(m)": 611967.1801316299,
        "Argument of Periapsis(deg)": 0.0,
        "Eccentricity": 0.0,
        "Inclination(deg)": 60.0,
        "Latitude(deg)": 59.14016521214492,
        "Longitude(deg)": 11.091893532898156,
        "Mean Anomaly(deg)": 98.18179999999998,
        "RAAN(deg)": 5.0,
        "Satellite Name": "Test1 28",
        "Satellite Number": 28,
        "Semi-Major Axis(m)": 6980739.136638005,
        "Time(s)": 0
    },
    {
        "Altitude(m)": 611934.3806359062,
        "Argument of Periapsis(deg)": 0.00010418945913296404,
        "Eccentricity": 0.0,
        "Inclination(deg)": 60.0,
        "Latitude(deg)": 58.98652932520579,
        "Longitude(deg)": 12.215140409307772,
        "Mean Anomaly(deg)": 98.80190614546183,
        "RAAN(deg)": 4.999579950860257,
        "Satellite Name": "Test1 28",
        "Satellite Number": 28,
        "Semi-Major Axis(m)": 6980739.136638005,
        "Time(s)": 10
    },
    {
        "Altitude(m)": 611899.2764987402,
        "Argument of Periapsis(deg)": 0.0002083789182659281,
        "Eccentricity": 0.0,
        "Inclination(deg)": 60.0,
        "Latitude(deg)": 58.8225153078766,
        "Longitude(deg)": 13.327722078592553,
        "Mean Anomaly(deg)": 99.42201229092365,
        "RAAN(deg)": 4.999159901720515,
        "Satellite Name": "Test1 28",
        "Satellite Number": 28,
        "Semi-Major Axis(m)": 6980739.136638005,
        "Time(s)": 20
    },
    {
        "Altitude(m)": 611861.8879542009,
        "Argument of Periapsis(deg)": 0.00031256837739889213,
        "Eccentricity": 0.0,
        "Inclination(deg)": 60.0,
        "Latitude(deg)": 58.648286208105944,
        "Longitude(deg)": 14.429126739628801,
        "Mean Anomaly(deg)": 100.04211843638548,
        "RAAN(deg)": 4.998739852580773,
        "Satellite Name": "Test1 28",
        "Satellite Number": 28,
        "Semi-Major Axis(m)": 6980739.136638005,
        "Time(s)": 30
    },
    {
        "Altitude(m)": 611822.2365621866,
        "Argument of Periapsis(deg)": 0.0004167578365318562,
        "Eccentricity": 0.0,
        "Inclination(deg)": 60.0,
        "Latitude(deg)": 58.46401152293982,
        "Longitude(deg)": 15.51888333983593,
        "Mean Anomaly(deg)": 100.66222458184733,
        "RAAN(deg)": 4.99831980344103,
        "Satellite Name": "Test1 28",
        "Satellite Number": 28,
        "Semi-Major Axis(m)": 6980739.136638005,
        "Time(s)": 40
    },
    {
        "Altitude(m)": 611780.3451982221,
        "Argument of Periapsis(deg)": 0.0005209472956648203,
        "Eccentricity": 0.0,
        "Inclination(deg)": 60.0,
        "Latitude(deg)": 58.26986648200185,
        "Longitude(deg)": 16.59656079892005,
        "Mean Anomaly(deg)": 101.28233072730914,
        "RAAN(deg)": 4.997899754301287,
        "Satellite Name": "Test1 28",
        "Satellite Number": 28,
        "Semi-Major Axis(m)": 6980739.136638005,
        "Time(s)": 50
    },
    {
        "Altitude(m)": 611736.2380426568,
        "Argument of Periapsis(deg)": 0.0006251367547977843,
        "Eccentricity": 0.0,
        "Inclination(deg)": 60.0,
        "Latitude(deg)": 58.06603133743198,
        "Longitude(deg)": 17.661768455487962,
        "Mean Anomaly(deg)": 101.90243687277098,
        "RAAN(deg)": 4.9974797051615445,
        "Satellite Name": "Test1 28",
        "Satellite Number": 28,
        "Semi-Major Axis(m)": 6980739.136638005,
        "Time(s)": 60
    },
    {
        "Altitude(m)": 611689.9405691958,
        "Argument of Periapsis(deg)": 0.0007293262139307483,
        "Eccentricity": 0.0,
        "Inclination(deg)": 60.0,
        "Latitude(deg)": 57.852690665664454,
        "Longitude(deg)": 18.714156243889086,
        "Mean Anomaly(deg)": 102.52254301823282,
        "RAAN(deg)": 4.9970596560218015,
        "Satellite Name": "Test1 28",
        "Satellite Number": 28,
        "Semi-Major Axis(m)": 6980739.136638005,
        "Time(s)": 70
    },
    {
        "Altitude(m)": 611641.4795328644,
        "Argument of Periapsis(deg)": 0.0008335156730637124,
        "Eccentricity": 0.0,
        "Inclination(deg)": 60.0,
        "Latitude(deg)": 57.63003268588339,
        "Longitude(deg)": 19.753413110796675,
        "Mean Anomaly(deg)": 103.14264916369464,
        "RAAN(deg)": 4.996639606882058,
        "Satellite Name": "Test1 28",
        "Satellite Number": 28,
        "Semi-Major Axis(m)": 6980739.136638005,
        "Time(s)": 80
    },
    {
        "Altitude(m)": 611590.8829573089,
        "Argument of Periapsis(deg)": 0.0009377051321966765,
        "Eccentricity": 0.0,
        "Inclination(deg)": 60.0,
        "Latitude(deg)": 57.398248599433266,
        "Longitude(deg)": 20.77926672120479,
        "Mean Anomaly(deg)": 103.76275530915647,
        "RAAN(deg)": 4.996219557742316,
        "Satellite Name": "Test1 28",
        "Satellite Number": 28,
        "Semi-Major Axis(m)": 6980739.136638005,
        "Time(s)": 90
    },
    {
        "Altitude(m)": 611538.180121539,
        "Argument of Periapsis(deg)": 0.0010418945913296407,
        "Eccentricity": 0.0,
        "Inclination(deg)": 60.0,
        "Latitude(deg)": 57.15753195386777,
        "Longitude(deg)": 21.791482965855586,
        "Mean Anomaly(deg)": 104.3828614546183,
        "RAAN(deg)": 4.995799508602573,
        "Satellite Name": "Test1 28",
        "Satellite Number": 28,
        "Semi-Major Axis(m)": 6980739.136638005,
        "Time(s)": 100
    },
    {
        "Altitude(m)": 611483.401546004,
        "Argument of Periapsis(deg)": 0.0011460840504626045,
        "Eccentricity": 0.0,
        "Inclination(deg)": 60.0,
        "Latitude(deg)": 56.90807803473484,
        "Longitude(deg)": 22.789863782525163,
        "Mean Anomaly(deg)": 105.00296760008013,
        "RAAN(deg)": 4.995379459462831,
        "Satellite Name": "Test1 28",
        "Satellite Number": 28,
        "Semi-Major Axis(m)": 6980739.136638005,
        "Time(s)": 110
    },
    {
        "Altitude(m)": 611426.5789781589,
        "Argument of Periapsis(deg)": 0.0012502735095955685,
        "Eccentricity": 0.0,
        "Inclination(deg)": 60.0,
        "Latitude(deg)": 56.65008328762711,
        "Longitude(deg)": 23.774246342150697,
        "Mean Anomaly(deg)": 105.62307374554194,
        "RAAN(deg)": 4.994959410323088,
        "Satellite Name": "Test1 28",
        "Satellite Number": 28,
        "Semi-Major Axis(m)": 6980739.136638005,
        "Time(s)": 120
    },
    {
        "Altitude(m)": 611367.745377349,
        "Argument of Periapsis(deg)": 0.0013544629687285324,
        "Eccentricity": 0.0,
        "Inclination(deg)": 60.0,
        "Latitude(deg)": 56.38374477246408,
        "Longitude(deg)": 24.744502111655887,
        "Mean Anomaly(deg)": 106.24317989100379,
        "RAAN(deg)": 4.994539361183345,
        "Satellite Name": "Test1 28",
        "Satellite Number": 28,
        "Semi-Major Axis(m)": 6980739.136638005,
        "Time(s)": 130
    },
    {
        "Altitude(m)": 611306.9348991567,
        "Argument of Periapsis(deg)": 0.0014586524278614966,
        "Eccentricity": 0.0,
        "Inclination(deg)": 60.0,
        "Latitude(deg)": 56.10925965144584,
        "Longitude(deg)": 25.700534304462703,
        "Mean Anomaly(deg)": 106.86328603646561,
        "RAAN(deg)": 4.994119312043602,
        "Satellite Name": "Test1 28",
        "Satellite Number": 28,
        "Semi-Major Axis(m)": 6980739.136638005,
        "Time(s)": 140
    },
    {
        "Altitude(m)": 611244.1828791801,
        "Argument of Periapsis(deg)": 0.0015628418869944607,
        "Eccentricity": 0.0,
        "Inclination(deg)": 60.0,
        "Latitude(deg)": 55.82682471163472,
        "Longitude(deg)": 26.64227676713327,
        "Mean Anomaly(deg)": 107.48339218192744,
        "RAAN(deg)": 4.99369926290386,
        "Satellite Name": "Test1 28",
        "Satellite Number": 28,
        "Semi-Major Axis(m)": 6980739.136638005,
        "Time(s)": 150
    },
    {
        "Altitude(m)": 611179.5258161989,
        "Argument of Periapsis(deg)": 0.0016670313461274247,
        "Eccentricity": 0.0,
        "Inclination(deg)": 60.0,
        "Latitude(deg)": 55.53663592266332,
        "Longitude(deg)": 27.569692810551416,
        "Mean Anomaly(deg)": 108.10349832738926,
        "RAAN(deg)": 4.993279213764118,
        "Satellite Name": "Test1 28",
        "Satellite Number": 28,
        "Semi-Major Axis(m)": 6980739.136638005,
        "Time(s)": 160
    },
    {
        "Altitude(m)": 611113.0013547993,
        "Argument of Periapsis(deg)": 0.0017712208052603888,
        "Eccentricity": 0.0,
        "Inclination(deg)": 60.0,
        "Latitude(deg)": 55.23888802965876,
        "Longitude(deg)": 28.482772492470215,
        "Mean Anomaly(deg)": 108.72360447285111,
        "RAAN(deg)": 4.992859164624375,
        "Satellite Name": "Test1 28",
        "Satellite Number": 28,
        "Semi-Major Axis(m)": 6980739.136638005,
        "Time(s)": 170
    },
    {
        "Altitude(m)": 611044.6482674376,
        "Argument of Periapsis(deg)": 0.001875410264393353,
        "Eccentricity": 0.0,
        "Inclination(deg)": 60.0,
        "Latitude(deg)": 54.9337741811207,
        "Longitude(deg)": 29.38153139516631,
        "Mean Anomaly(deg)": 109.34371061831294,
        "RAAN(deg)": 4.992439115484632,
        "Satellite Name": "Test1 28",
        "Satellite Number": 28,
        "Semi-Major Axis(m)": 6980739.136638005,
        "Time(s)": 180
    },
    {
        "Altitude(m)": 610974.5064359508,
        "Argument of Periapsis(deg)": 0.0019795997235263173,
        "Eccentricity": 0.0,
        "Inclination(deg)": 60.0,
        "Latitude(deg)": 54.62148559116543,
        "Longitude(deg)": 30.266009401542426,
        "Mean Anomaly(deg)": 109.96381676377476,
        "RAAN(deg)": 4.992019066344889,
        "Satellite Name": "Test1 28",
        "Satellite Number": 28,
        "Semi-Major Axis(m)": 6980739.136638005,
        "Time(s)": 190
    }
]